0 SCOUT G-1 R/B
1 21528U 91045B   13282.73975774  .00000203  00000-0  79626-4 0  3401
2 21528 089.5777 136.6803 0066471 302.9697 101.8298 14.25112509157462
0 SCOUT G-1 R/B
1 21528U 91045B   13284.16364735  .00000252  00000-0  99935-4 0  3419
2 21528 089.5774 136.6118 0066416 298.1564 207.1046 14.25113048157668
0 SCOUT G-1 R/B
1 21528U 91045B   13285.47838604  .00000215  00000-0  84845-4 0  3429
2 21528 089.5771 136.5486 0066378 293.6855 112.4087 14.25113397157853
0 SCOUT G-1 R/B
1 21528U 91045B   13286.53403353  .00000220  00000-0  86542-4 0  3439
2 21528 089.5768 136.4977 0066358 290.1053 128.4298 14.25113848158003
0 SCOUT G-1 R/B
1 21528U 91045B   13287.86849891  .00000256  00000-0  10188-3 0  3449
2 21528 089.5766 136.4335 0066353 285.5801 134.9343 14.25114778158199
0 SCOUT G-1 R/B
1 21528U 91045B   13289.14895130  .00000257  00000-0  10207-3 0  3453
2 21528 089.5764 136.3718 0066356 281.2429 224.3221 14.25115887158374
0 SCOUT G-1 R/B
1 21528U 91045B   13290.46344385  .00000265  00000-0  10536-3 0  3466
2 21528 089.5763 136.3084 0066366 276.7776 128.3722 14.25116520158569
0 SCOUT G-1 R/B
1 21528U 91045B   13291.52030253  .00000251  00000-0  99466-4 0  3476
2 21528 089.5763 136.2574 0066382 273.1935 150.6184 14.25117015158715
0 SCOUT G-1 R/B
1 21528U 91045B   13293.15007921  .00000271  00000-0  10789-3 0  3486
2 21528 089.5763 136.1787 0066449 267.6757 232.2340 14.25117643158947
0 SCOUT G-1 R/B
1 21528U 91045B   13294.53267772  .00000274  00000-0  10940-3 0  3494
2 21528 089.5763 136.1120 0066500 262.9938 125.6990 14.25118430159149
0 SCOUT G-1 R/B
1 21528U 91045B   13296.16916042  .00000285  00000-0  11365-3 0  3502
2 21528 089.5761 136.0330 0066594 257.4537 241.7269 14.25119264159376
